JY1SAT (JO-97)          
1 43803U 18099AX  26068.68634132  .00017774  00000+0  60804-3 0  9996
2 43803  97.4249 131.3625 0004723 256.6795 103.3919 15.30302628398390
STARLINK-31270          
1 59154U 24044C   26068.42189563 -.00002079  00000+0 -66064-4 0  9993
2 59154  43.0016 108.6228 0000770 219.3412 140.7384 15.27567119113559
